[{"OBJECT_NAME":"STARLINK-31754","OBJECT_ID":"2024-071E","EPOCH":"2026-03-09T03:17:05.090208","MEAN_MOTION":15.27584946,"ECCENTRICITY":0.00013284,"INCLINATION":43.0014,"RA_OF_ASC_NODE":350.432,"ARG_OF_PERICENTER":258.4045,"MEAN_ANOMALY":101.6657,"EPHEMERIS_TYPE":0,"CLASSIFICATION_TYPE":"U","NORAD_CAT_ID":59488,"ELEMENT_SET_NO":999,"REV_AT_EPOCH":10803,"BSTAR":0.00012843048,"MEAN_MOTION_DOT":3.274e-5,"MEAN_MOTION_DDOT":0},{"OBJECT_NAME":"OBJECT V","OBJECT_ID":"2025-155V","EPOCH":"2026-03-09T20:35:20.067360","MEAN_MOTION":15.27583301,"ECCENTRICITY":0.00080353,"INCLINATION":97.4485,"RA_OF_ASC_NODE":37.249,"ARG_OF_PERICENTER":152.8264,"MEAN_ANOMALY":207.3397,"EPHEMERIS_TYPE":0,"CLASSIFICATION_TYPE":"U","NORAD_CAT_ID":64895,"ELEMENT_SET_NO":999,"REV_AT_EPOCH":6557,"BSTAR":0.00051002361,"MEAN_MOTION_DOT":0.00013705,"MEAN_MOTION_DDOT":0}]
